CENTAURI-1              
1 43809U 18099BD  26188.00156065  .00003787  00000+0  19708-3 0  9991
2 43809  97.4209 239.2968 0012443 256.6272 103.3574 15.16571569415504
CENTAURI-6              
1 59451U 24066K   26188.36717113  .00002968  00000+0  21715-3 0  9999
2 59451  45.6048 149.0952 0001310 238.4119 121.6637 15.05988102123164
CENTAURI-7              
1 62708U 25009DD  26188.77020929  .00003203  00000+0  27665-3 0  9996
2 62708  97.7086 268.7835 0002734 116.3524 243.7979 14.97937766 80546
CENTAURI-8              
1 62714U 25009DK  26188.66506779  .00001521  00000+0  13406-3 0  9992
2 62714  97.7045 268.5063 0002972  85.7089 274.4473 14.97903967 80544
