{"fetched_at":"2026-07-08T07:03:49.614Z","source":"https://celestrak.org/NORAD/elements/gp.php?NAME=CENTAURI&FORMAT=JSON","constellation":"myriota","records":[{"OBJECT_NAME":"CENTAURI-1","OBJECT_ID":"2018-099BD","EPOCH":"2026-07-07T00:02:14.840160","CLASSIFICATION_TYPE":"U","MEAN_MOTION":15.16571569,"ECCENTRICITY":0.00124438,"INCLINATION":97.4209,"RA_OF_ASC_NODE":239.2968,"ARG_OF_PERICENTER":256.6272,"MEAN_ANOMALY":103.3574,"EPHEMERIS_TYPE":0,"NORAD_CAT_ID":43809,"ELEMENT_SET_NO":999,"REV_AT_EPOCH":41550,"BSTAR":0.00019708266,"MEAN_MOTION_DOT":0.00003787,"MEAN_MOTION_DDOT":0},{"OBJECT_NAME":"CENTAURI-6","OBJECT_ID":"2024-066K","EPOCH":"2026-07-07T08:48:43.585632","CLASSIFICATION_TYPE":"U","MEAN_MOTION":15.05988102,"ECCENTRICITY":0.00013108,"INCLINATION":45.6048,"RA_OF_ASC_NODE":149.0952,"ARG_OF_PERICENTER":238.4119,"MEAN_ANOMALY":121.6637,"EPHEMERIS_TYPE":0,"NORAD_CAT_ID":59451,"ELEMENT_SET_NO":999,"REV_AT_EPOCH":12316,"BSTAR":0.00021714713,"MEAN_MOTION_DOT":0.00002968,"MEAN_MOTION_DDOT":0},{"OBJECT_NAME":"CENTAURI-7","OBJECT_ID":"2025-009DD","EPOCH":"2026-07-07T18:29:06.082656","CLASSIFICATION_TYPE":"U","MEAN_MOTION":14.97937766,"ECCENTRICITY":0.0002734,"INCLINATION":97.7086,"RA_OF_ASC_NODE":268.7835,"ARG_OF_PERICENTER":116.3524,"MEAN_ANOMALY":243.7979,"EPHEMERIS_TYPE":0,"NORAD_CAT_ID":62708,"ELEMENT_SET_NO":999,"REV_AT_EPOCH":8054,"BSTAR":0.00027665,"MEAN_MOTION_DOT":0.00003203,"MEAN_MOTION_DDOT":0},{"OBJECT_NAME":"CENTAURI-8","OBJECT_ID":"2025-009DK","EPOCH":"2026-07-07T15:57:41.857056","CLASSIFICATION_TYPE":"U","MEAN_MOTION":14.97903967,"ECCENTRICITY":0.0002972,"INCLINATION":97.7045,"RA_OF_ASC_NODE":268.5063,"ARG_OF_PERICENTER":85.7089,"MEAN_ANOMALY":274.4473,"EPHEMERIS_TYPE":0,"NORAD_CAT_ID":62714,"ELEMENT_SET_NO":999,"REV_AT_EPOCH":8054,"BSTAR":0.00013406,"MEAN_MOTION_DOT":0.00001521,"MEAN_MOTION_DDOT":0}]}
